0 METEOR 1-12
1 06079U 72049A   13282.13413894  .00000174  00000-0  10465-3 0  6070
2 06079 081.2250 135.3255 0011801 110.6500 038.4099 14.02867887111445
0 METEOR 1-12
1 06079U 72049A   13283.20064406  .00000216  00000-0  13155-3 0  6087
2 06079 081.2248 134.2976 0011792 107.9875 024.2916 14.02867967111599
0 METEOR 1-12
1 06079U 72049A   13285.75163638  .00000196  00000-0  11881-3 0  6100
2 06079 081.2244 131.8390 0011834 101.5792 306.9143 14.02869127111955
0 METEOR 1-12
1 06079U 72049A   13287.12442135  .00000121  00000-0  70367-4 0  6119
2 06079 081.2242 130.5158 0011871 098.1354 039.5341 14.02870102112143
0 METEOR 1-12
1 06079U 72049A   13288.52946223  .00000059  00000-0  29848-4 0  6120
2 06079 081.2240 129.1614 0011914 094.6320 295.0310 14.02871210112342
0 METEOR 1-12
1 06079U 72049A   13289.82232167  .00000013  00000-0  18357-6 0  6135
2 06079 081.2240 127.9151 0011931 091.4217 344.0015 14.02872018112527
0 METEOR 1-12
1 06079U 72049A   13291.11814814 -.00000031  00000-0 -27766-4 0  6140
2 06079 081.2240 126.6660 0011967 088.1203 048.0412 14.02872204112704
0 METEOR 1-12
1 06079U 72049A   13292.18451131 -.00000033  00000-0 -29527-4 0  6157
2 06079 081.2241 125.6380 0011948 085.3646 033.3125 14.02872069112855
0 METEOR 1-12
1 06079U 72049A   13293.25357076 -.00000018  00000-0 -19952-4 0  6164
2 06079 081.2242 124.6075 0011908 082.6164 032.1865 14.02871817113003
0 METEOR 1-12
1 06079U 72049A   13294.52040586  .00000022  00000-0  62797-5 0  6170
2 06079 081.2242 123.3864 0011855 079.2597 309.9500 14.02871662113186
0 METEOR 1-12
1 06079U 72049A   13295.82404733  .00000085  00000-0  46874-4 0  6189
2 06079 081.2242 122.1299 0011785 075.6768 053.7225 14.02871360113360
